$$SOE
2461295.500000000, A.D. 2026-Sep-12 00:00:00.0000, 1.676762747692297E+08, -2.223891293268363E+08, 9.486982185428442E+07,
2461302.500000000, A.D. 2026-Sep-19 00:00:00.0000, 1.773802211790251E+08, -2.145468517623901E+08, 9.653471640181029E+07,
2461309.500000000, A.D. 2026-Sep-26 00:00:00.0000, 1.867475946246326E+08, -2.062974592581318E+08, 9.801642469864492E+07,
2461316.500000000, A.D. 2026-Oct-03 00:00:00.0000, 1.957620055041577E+08, -1.976581418069350E+08, 9.931286351377672E+07,
2461323.500000000, A.D. 2026-Oct-10 00:00:00.0000, 2.044077737048738E+08, -1.886466055490372E+08, 1.004222723831694E+08,
2461330.500000000, A.D. 2026-Oct-17 00:00:00.0000, 2.126699366173948E+08, -1.792810430066624E+08, 1.013432107091921E+08,
2461337.500000000, A.D. 2026-Oct-24 00:00:00.0000, 2.205342564055665E+08, -1.695801043314333E+08, 1.020745547934142E+08,
2461344.500000000, A.D. 2026-Oct-31 00:00:00.0000, 2.279872267371882E+08, -1.595628695943167E+08, 1.026154948120885E+08,
2461351.500000000, A.D. 2026-Nov-07 00:00:00.0000, 2.350160794177543E+08, -1.492488219961299E+08, 1.029655317297147E+08,
2461358.500000000, A.D. 2026-Nov-14 00:00:00.0000, 2.416087912296740E+08, -1.386578210583757E+08, 1.031244742281493E+08,
2461365.500000000, A.D. 2026-Nov-21 00:00:00.0000, 2.477540892595402E+08, -1.278100750614032E+08, 1.030924358974117E+08,
2461372.500000000, A.D. 2026-Nov-28 00:00:00.0000, 2.534414537962269E+08, -1.167261156826642E+08, 1.028698325494065E+08,
2461379.500000000, A.D. 2026-Dec-05 00:00:00.0000, 2.586611224911402E+08, -1.054267754245013E+08, 1.024573792764700E+08,
2461386.500000000, A.D. 2026-Dec-12 00:00:00.0000, 2.634040960147053E+08, -9.393316464811027E+07, 1.018560875019348E+08,
2461393.500000000, A.D. 2026-Dec-19 00:00:00.0000, 2.676621433856531E+08, -8.226664813455293E+07, 1.010672622044731E+08,
2461400.500000000, A.D. 2026-Dec-26 00:00:00.0000, 2.714278068862256E+08, -7.044882196599872E+07, 1.000924992630932E+08,
2461407.500000000, A.D. 2027-Jan-02 00:00:00.0000, 2.746944068866217E+08, -5.850149084003375E+07, 9.893368288307756E+07,
2461414.500000000, A.D. 2027-Jan-09 00:00:00.0000, 2.774560467356734E+08, -4.644664571595801E+07, 9.759298309210195E+07,
2461421.500000000, A.D. 2027-Jan-16 00:00:00.0000, 2.797076177860215E+08, -3.430644170109186E+07, 9.607285329996316E+07,
2461428.500000000, A.D. 2027-Jan-23 00:00:00.0000, 2.814448046259471E+08, -2.210317613239051E+07, 9.437602790827212E+07,
2461435.500000000, A.D. 2027-Jan-30 00:00:00.0000, 2.826640907237678E+08, -9.859266817382473E+06, 9.250551993924221E+07,
2461442.500000000, A.D. 2027-Feb-06 00:00:00.0000, 2.833627649155665E+08, 2.402769991080061E+06, 9.046461865570274E+07,
2461449.500000000, A.D. 2027-Feb-13 00:00:00.0000, 2.835389282735451E+08, 1.466034320077503E+07, 8.825688729566267E+07,
2461456.500000000, A.D. 2027-Feb-20 00:00:00.0000, 2.831914989939065E+08, 2.689081137043986E+07, 8.588616106323497E+07,
2461463.500000000, A.D. 2027-Feb-27 00:00:00.0000, 2.823202166960999E+08, 3.907150495311806E+07, 8.335654496958898E+07,
2461470.500000000, A.D. 2027-Mar-06 00:00:00.0000, 2.809256491273704E+08, 5.117974830085383E+07, 8.067241137635869E+07,
2461477.500000000, A.D. 2027-Mar-13 00:00:00.0000, 2.790091996415527E+08, 6.319288357232201E+07, 7.783839752814567E+07,
2461484.500000000, A.D. 2027-Mar-20 00:00:00.0000, 2.765731142885661E+08, 7.508829579888877E+07, 7.485940308285405E+07,
2461491.500000000, A.D. 2027-Mar-27 00:00:00.0000, 2.736204886745175E+08, 8.684343864749709E+07, 7.174058754723579E+07,
2461498.500000000, A.D. 2027-Apr-03 00:00:00.0000, 2.701552747438472E+08, 9.843586091806540E+07, 6.848736756289564E+07,
2461505.500000000, A.D. 2027-Apr-10 00:00:00.0000, 2.661822874839340E+08, 1.098432338818782E+08, 6.510541400417373E+07,
2461512.500000000, A.D. 2027-Apr-17 00:00:00.0000, 2.617072115040966E+08, 1.210433795277573E+08, 6.160064884758417E+07,
2461519.500000000, A.D. 2027-Apr-24 00:00:00.0000, 2.567366074893800E+08, 1.320142997324881E+08, 5.797924176157526E+07,
2461526.500000000, A.D. 2027-May-01 00:00:00.0000, 2.512779187430629E+08, 1.427342064578231E+08, 5.424760635093211E+07,
2461533.500000000, A.D. 2027-May-08 00:00:00.0000, 2.453394780288084E+08, 1.531815537862697E+08, 5.041239604339989E+07,
2461540.500000000, A.D. 2027-May-15 00:00:00.0000, 2.389305130943452E+08, 1.633350728069281E+08, 4.648049978249218E+07,
2461547.500000000, A.D. 2027-May-22 00:00:00.0000, 2.320611491896378E+08, 1.731738068302596E+08, 4.245903741491000E+07,
2461554.500000000, A.D. 2027-May-29 00:00:00.0000, 2.247424118267344E+08, 1.826771455201132E+08, 3.835535430208743E+07,
2461561.500000000, A.D. 2027-Jun-05 00:00:00.0000, 2.169862305338885E+08, 1.918248611072425E+08, 3.417701527585107E+07,
2461568.500000000, A.D. 2027-Jun-12 00:00:00.0000, 2.088054414479798E+08, 2.005971471394452E+08, 2.993179809988993E+07,
2461575.500000000, A.D. 2027-Jun-19 00:00:00.0000, 2.002137882559927E+08, 2.089746588381708E+08, 2.562768632990126E+07,
2461582.500000000, A.D. 2027-Jun-26 00:00:00.0000, 1.912259215830286E+08, 2.169385547848608E+08, 2.127286146123458E+07,
2461589.500000000, A.D. 2027-Jul-03 00:00:00.0000, 1.818573967527609E+08, 2.244705399246908E+08, 1.687569429388192E+07,
2461596.500000000, A.D. 2027-Jul-10 00:00:00.0000, 1.721246697478265E+08, 2.315529098820373E+08, 1.244473546488039E+07,
2461603.500000000, A.D. 2027-Jul-17 00:00:00.0000, 1.620450912132564E+08, 2.381685965292349E+08, 7.988705099786639E+06,
2461610.500000000, A.D. 2027-Jul-24 00:00:00.0000, 1.516368984760280E+08, 2.443012146996164E+08, 3.516481517322570E+06,
2461617.500000000, A.D. 2027-Jul-31 00:00:00.0000, 1.409192058018904E+08, 2.499351102014428E+08, -9.629110841296762E+05,
2461624.500000000, A.D. 2027-Aug-07 00:00:00.0000, 1.299119924885186E+08, 2.550554101735968E+08, -5.440315900948539E+06,
2461631.500000000, A.D. 2027-Aug-14 00:00:00.0000, 1.186360862735889E+08, 2.596480753756554E+08, -9.906457620314777E+06,
2461638.500000000, A.D. 2027-Aug-21 00:00:00.0000, 1.071131424351724E+08, 2.636999508867113E+08, -1.435195770900086E+07,
2461645.500000000, A.D. 2027-Aug-28 00:00:00.0000, 9.536562180351064E+07, 2.671988162550222E+08, -1.876735114759974E+07,
2461652.500000000, A.D. 2027-Sep-04 00:00:00.0000, 8.341676629854356E+07, 2.701334373867917E+08, -2.314310432963975E+07,
2461659.500000000, A.D. 2027-Sep-11 00:00:00.0000, 7.129057038670024E+07, 2.724936192665268E+08, -2.746963407330289E+07,
2461666.500000000, A.D. 2027-Sep-18 00:00:00.0000, 5.901174839118104E+07, 2.742702585912257E+08, -3.173732782373202E+07,
2461673.500000000, A.D. 2027-Sep-25 00:00:00.0000, 4.660569770199620E+07, 2.754553959450064E+08, -3.593656507662988E+07,
2461680.500000000, A.D. 2027-Oct-02 00:00:00.0000, 3.409845779604943E+07, 2.760422672159826E+08, -4.005774002037109E+07,
2461687.500000000, A.D. 2027-Oct-09 00:00:00.0000, 2.151666494615019E+07, 2.760253538956883E+08, -4.409128537947863E+07,
2461694.500000000, A.D. 2027-Oct-16 00:00:00.0000, 8.887502563649414E+06, 2.754004318226222E+08, -4.802769743670625E+07,
2461701.500000000, A.D. 2027-Oct-23 00:00:00.0000, -3.761352655177176E+06, 2.741646179542401E+08, -5.185756221039278E+07,
2461708.500000000, A.D. 2027-Oct-30 00:00:00.0000, -1.640178846202162E+07, 2.723164153464676E+08, -5.557158270954882E+07,
2461715.500000000, A.D. 2027-Nov-06 00:00:00.0000, -2.900531984819555E+07, 2.698557570226728E+08, -5.916060699360829E+07,
2461722.500000000, A.D. 2027-Nov-13 00:00:00.0000, -4.154315884278245E+07, 2.667840461775678E+08, -6.261565692885437E+07,
2461729.500000000, A.D. 2027-Nov-20 00:00:00.0000, -5.398628834984084E+07, 2.631041900238251E+08, -6.592795796234649E+07,
2461736.500000000, A.D. 2027-Nov-27 00:00:00.0000, -6.630553829999544E+07, 2.588206297653837E+08, -6.908896969352767E+07,
2461743.500000000, A.D. 2027-Dec-04 00:00:00.0000, -7.847166595664613E+07, 2.539393671250248E+08, -7.209041684242269E+07,
2461750.500000000, A.D. 2027-Dec-11 00:00:00.0000, -9.045544069120738E+07, 2.484679859623833E+08, -7.492432047551474E+07,
2461757.500000000, A.D. 2027-Dec-18 00:00:00.0000, -1.022277326638291E+08, 2.424156681570728E+08, -7.758302935924064E+07,
2461764.500000000, A.D. 2027-Dec-25 00:00:00.0000, -1.137596049087047E+08, 2.357932032899706E+08, -8.005925125859948E+07,
2461771.500000000, A.D. 2028-Jan-01 00:00:00.0000, -1.250224083719759E+08, 2.286129916992788E+08, -8.234608397310802E+07,
$$EOE